NORAD_CAT_ID,OBJECT_NAME,OBJECT_TYPE,EPOCH,MEAN_MOTION,ECCENTRICITY,INCLINATION,RA_OF_ASC_NODE,ARG_OF_PERICENTER,MEAN_ANOMALY,BSTAR,MEAN_MOTION_DOT,MEAN_MOTION_DDOT,TLE_LINE0,TLE_LINE1,TLE_LINE2,SEMIMAJOR_AXIS,PERIOD,APOGEE,PERIGEE,DECAYED
52611.0,STARLINK-3980,PAYLOAD,2023-11-17 10:38:08,15.08836605,0.0001383,53.2165,109.6004,86.4098,273.7052,-3.7513e-06,-3.48e-06,0.0,0 STARLINK-3980,1 52611U 22052P   23321.44315408 -.00000348  00000-0 -37513-5 0  9997,2 52611  53.2165 109.6004 0001383  86.4098 273.7052 15.08836605 83851,6917.891,95.438,540.713,538.799,0.0
52611.0,STARLINK-3980,PAYLOAD,2023-11-17 16:59:41,15.08836412,5.41e-05,53.2162,108.4092,31.6235,328.479,4.459e-05,4.22e-06,0.0,0 STARLINK-3980,1 52611U 22052P   23321.70811407  .00000422  00000-0  44590-4 0  9999,2 52611  53.2162 108.4092 0000541  31.6235 328.4790 15.08836412 83529,6917.891,95.438,540.131,539.382,0.0
52611.0,STARLINK-3980,PAYLOAD,2023-11-18 10:28:55,15.08835878,6.56e-05,53.2151,105.1382,49.138,310.9669,1.7702e-05,-6e-08,0.0,0 STARLINK-3980,1 52611U 22052P   23322.43675723 -.00000006  00000-0  17702-4 0  9993,2 52611  53.2151 105.1382 0000656  49.1380 310.9669 15.08835878 83633,6917.893,95.438,540.212,539.304,0.0
52611.0,STARLINK-3980,PAYLOAD,2023-11-18 16:50:27,15.08842148,4.78e-05,53.2207,103.9522,33.9372,326.165,5.9332e-05,6.57e-06,0.0,0 STARLINK-3980,1 52611U 22052P   23322.70171222  .00000657  00000-0  59332-4 0  9994,2 52611  53.2207 103.9522 0000478  33.9372 326.1650 15.08842148 84044,6917.874,95.437,540.069,539.408,0.0
52611.0,STARLINK-3980,PAYLOAD,2023-11-19 13:30:29,15.08837686,0.0001163,53.2186,100.0872,96.6566,263.4558,5.3963e-05,5.71e-06,0.0,0 STARLINK-3980,1 52611U 22052P   23323.56283597  .00000571  00000-0  53963-4 0  9997,2 52611  53.2186 100.0872 0001163  96.6566 263.4558 15.08837686 83803,6917.887,95.438,540.557,538.948,0.0
52611.0,STARLINK-3980,PAYLOAD,2023-11-19 16:41:15,15.08840132,0.0001568,53.2172,99.4924,101.1288,258.988,7.095e-05,8.41e-06,0.0,0 STARLINK-3980,1 52611U 22052P   23323.69531355  .00000841  00000-0  70950-4 0  9994,2 52611  53.2172  99.4924 0001568 101.1288 258.9880 15.08840132 83828,6917.88,95.438,540.83,538.66,0.0
52611.0,STARLINK-3980,PAYLOAD,2023-11-20 02:13:34,15.08837225,0.0001304,53.2179,97.7063,87.781,272.3331,5.6533e-05,6.12e-06,0.0,0 STARLINK-3980,1 52611U 22052P   23324.09275610  .00000612  00000-0  56533-4 0  9995,2 52611  53.2179  97.7063 0001304  87.7810 272.3331 15.08837225 84256,6917.889,95.438,540.656,538.852,0.0
52611.0,STARLINK-3980,PAYLOAD,2023-11-20 13:21:16,15.08838684,0.0001273,53.2172,95.6253,92.924,267.1898,-3.8317e-05,-8.98e-06,0.0,0 STARLINK-3980,1 52611U 22052P   23324.55643926 -.00000898  00000-0 -38317-4 0  9993,2 52611  53.2172  95.6253 0001273  92.9240 267.1898 15.08838684 83953,6917.884,95.438,540.63,538.869,0.0
52611.0,STARLINK-3980,PAYLOAD,2023-11-20 18:07:25,15.088539,0.000123,53.2173,94.7326,89.5569,270.5564,-0.00021341,-3.684e-05,0.0,0 STARLINK-3980,1 52611U 22052P   23324.75515450 -.00003684  00000-0 -21341-3 0  9999,2 52611  53.2173  94.7326 0001230  89.5569 270.5564 15.08853900 83983,6917.838,95.437,540.554,538.852,0.0
52611.0,STARLINK-3980,PAYLOAD,2023-11-21 08:25:53,15.0883981,0.000129,53.2175,92.0558,90.5105,269.6035,2.1089e-05,4.8e-07,0.0,0 STARLINK-3980,1 52611U 22052P   23325.35131765  .00000048  00000-0  21089-4 0  9998,2 52611  53.2175  92.0558 0001290  90.5105 269.6035 15.08839810 84445,6917.881,95.438,540.638,538.854,0.0
52611.0,STARLINK-3980,PAYLOAD,2023-11-21 13:12:02,15.08844696,0.0001285,53.2174,91.1642,88.9838,271.1301,6.1959e-05,6.98e-06,0.0,0 STARLINK-3980,1 52611U 22052P   23325.55003318  .00000698  00000-0  61959-4 0  9993,2 52611  53.2174  91.1642 0001285  88.9838 271.1301 15.08844696 84101,6917.866,95.437,540.62,538.842,0.0
52611.0,STARLINK-3980,PAYLOAD,2023-11-21 14:47:25,15.08846373,0.0001304,53.2174,90.8668,88.9424,271.1717,7.7032e-05,9.38e-06,0.0,0 STARLINK-3980,1 52611U 22052P   23325.61627157  .00000938  00000-0  77032-4 0  9999,2 52611  53.2174  90.8668 0001304  88.9424 271.1717 15.08846373 84484,6917.861,95.437,540.628,538.824,0.0
52611.0,STARLINK-3980,PAYLOAD,2023-11-22 14:38:12,15.08847433,0.0001429,53.2172,86.4083,71.7078,288.407,0.00015436,2.17e-05,0.0,0 STARLINK-3980,1 52611U 22052P   23326.60986764  .00002170  00000-0  15436-3 0  9990,2 52611  53.2172  86.4083 0001429  71.7078 288.4070 15.08847433 84264,6917.858,95.437,540.711,538.734,0.0
52611.0,STARLINK-3980,PAYLOAD,2023-11-23 11:18:14,15.0883849,0.0001476,53.2179,82.5411,90.6008,269.5153,-2.2872e-05,-6.52e-06,0.0,0 STARLINK-3980,1 52611U 22052P   23327.47099836 -.00000652  00000-0 -22872-4 0  9999,2 52611  53.2179  82.5411 0001476  90.6008 269.5153 15.08838490 84768,6917.885,95.438,540.771,538.729,0.0
52611.0,STARLINK-3980,PAYLOAD,2023-11-23 14:29:00,15.0883871,0.0001707,53.218,81.9448,113.5305,246.5866,-3.7264e-05,-8.81e-06,0.0,0 STARLINK-3980,1 52611U 22052P   23327.60347729 -.00000881  00000-0 -37264-4 0  9996,2 52611  53.2180  81.9448 0001707 113.5305 246.5866 15.08838710 84418,6917.884,95.438,540.93,538.568,0.0
52611.0,STARLINK-3980,PAYLOAD,2023-11-24 14:19:47,15.08843464,0.000162,53.2188,77.4867,105.8537,254.2634,-0.00010037,-1.885e-05,0.0,0 STARLINK-3980,1 52611U 22052P   23328.59708056 -.00001885  00000-0 -10037-3 0  9992,2 52611  53.2188  77.4867 0001620 105.8537 254.2634 15.08843464 84563,6917.87,95.437,540.855,538.614,0.0
52611.0,STARLINK-3980,PAYLOAD,2023-11-25 12:35:11,15.08841755,0.000164,53.2185,73.3253,86.7903,273.3276,0.00018543,2.664e-05,0.0,0 STARLINK-3980,1 52611U 22052P   23329.52443819  .00002664  00000-0  18543-3 0  9993,2 52611  53.2185  73.3253 0001640  86.7903 273.3276 15.08841755 84701,6917.875,95.437,540.875,538.605,0.0
52611.0,STARLINK-3980,PAYLOAD,2023-11-26 10:50:33,15.0886068,0.0001572,53.2184,69.1599,90.257,269.8603,0.00027847,4.149e-05,0.0,0 STARLINK-3980,1 52611U 22052P   23330.45177921  .00004149  00000-0  27847-3 0  9992,2 52611  53.2184  69.1599 0001572  90.2570 269.8603 15.08860680 85219,6917.817,95.436,540.77,538.595,0.0
52611.0,STARLINK-3980,PAYLOAD,2023-11-26 12:25:58,15.08829523,0.0001071,53.2175,68.8597,85.9997,274.1118,-0.00022208,-3.819e-05,0.0,0 STARLINK-3980,1 52611U 22052P   23330.51803344 -.00003819  00000-0 -22208-3 0  9995,2 52611  53.2175  68.8597 0001071  85.9997 274.1118 15.08829523 84851,6917.912,95.438,540.518,539.037,0.0
52611.0,STARLINK-3980,PAYLOAD,2023-11-26 15:36:44,15.08819237,0.000112,53.2173,68.2673,107.2321,252.8794,-0.00036744,-6.127e-05,0.0,0 STARLINK-3980,1 52611U 22052P   23330.65051811 -.00006127  00000-0 -36744-3 0  9999,2 52611  53.2173  68.2673 0001120 107.2321 252.8794 15.08819237 85240,6917.944,95.439,540.584,539.034,0.0
52611.0,STARLINK-3980,PAYLOAD,2023-11-27 13:52:09,15.08830625,0.0001543,53.2184,64.1048,103.0985,257.0179,-0.00020184,-3.498e-05,0.0,0 STARLINK-3980,1 52611U 22052P   23331.57788920 -.00003498  00000-0 -20184-3 0  9998,2 52611  53.2184  64.1048 0001543 103.0985 257.0179 15.08830625 85015,6917.909,95.438,540.841,538.707,0.0
52611.0,STARLINK-3980,PAYLOAD,2023-11-27 15:27:32,15.08833035,0.0001528,53.2181,63.8056,113.1988,246.9166,-0.00015577,-2.766e-05,0.0,0 STARLINK-3980,1 52611U 22052P   23331.64412764 -.00002766  00000-0 -15577-3 0  9993,2 52611  53.2181  63.8056 0001528 113.1988 246.9166 15.08833035 85397,6917.902,95.438,540.824,538.71,0.0
52611.0,STARLINK-3980,PAYLOAD,2023-11-28 13:42:56,15.08849928,0.0001305,53.2178,59.6473,82.2684,277.8456,0.00073673,0.0001146,0.0,0 STARLINK-3980,1 52611U 22052P   23332.57148406  .00011460  00000-0  73673-3 0  9995,2 52611  53.2178  59.6473 0001305  82.2684 277.8456 15.08849928 85169,6917.85,95.437,540.618,538.812,0.0
52611.0,STARLINK-3980,PAYLOAD,2023-11-29 11:58:20,15.08847668,0.000142,53.2176,55.483,87.3232,272.7923,0.00023663,3.481e-05,0.0,0 STARLINK-3980,1 52611U 22052P   23333.49884848  .00003481  00000-0  23663-3 0  9992,2 52611  53.2176  55.4830 0001420  87.3232 272.7923 15.08847668 85679,6917.857,95.437,540.704,538.74,0.0
52611.0,STARLINK-3980,PAYLOAD,2023-11-30 11:49:07,15.0885114,0.0001647,53.2187,51.0211,86.6473,273.4708,-3.4513e-05,-8.37e-06,0.0,0 STARLINK-3980,1 52611U 22052P   23334.49244461 -.00000837  00000-0 -34513-4 0  9995,2 52611  53.2187  51.0211 0001647  86.6473 273.4708 15.08851140 85822,6917.846,95.437,540.851,538.572,0.0
52611.0,STARLINK-3980,PAYLOAD,2023-12-01 10:04:31,15.08842973,0.0001682,53.2188,46.8586,103.9976,256.1204,0.0001122,1.498e-05,0.0,0 STARLINK-3980,1 52611U 22052P   23335.41980929  .00001498  00000-0  11220-3 0  9995,2 52611  53.2188  46.8586 0001682 103.9976 256.1204 15.08842973 85968,6917.871,95.437,540.9,538.573,0.0
52611.0,STARLINK-3980,PAYLOAD,2023-12-02 11:30:42,15.08822462,0.0001391,53.2181,42.1009,89.0342,271.081,-0.00034069,-5.703e-05,0.0,0 STARLINK-3980,1 52611U 22052P   23336.47965299 -.00005703  00000-0 -34069-3 0  9996,2 52611  53.2181  42.1009 0001391  89.0342 271.0810 15.08822462 86127,6917.934,95.439,540.761,538.837,0.0
52611.0,STARLINK-3980,PAYLOAD,2023-12-03 11:21:30,15.0882001,0.0001348,53.2184,37.6416,93.7145,266.4002,-0.00019987,-3.466e-05,0.0,0 STARLINK-3980,1 52611U 22052P   23337.47326973 -.00003466  00000-0 -19987-3 0  9993,2 52611  53.2184  37.6416 0001348  93.7145 266.4002 15.08820010 85909,6917.941,95.439,540.739,538.874,0.0
52611.0,STARLINK-3980,PAYLOAD,2023-12-03 22:29:13,15.08808384,0.0001294,53.2187,35.5614,90.5912,269.5228,-7.8389e-06,-4.12e-06,0.0,0 STARLINK-3980,1 52611U 22052P   23337.93696095 -.00000412  00000-0 -78389-5 0  9990,2 52611  53.2187  35.5614 0001294  90.5912 269.5228 15.08808384 86349,6917.977,95.44,540.737,538.947,0.0
52611.0,STARLINK-3980,PAYLOAD,2023-12-04 11:12:16,15.08850067,0.0001198,53.218,33.1822,90.4916,269.6213,0.00050972,7.836e-05,0.0,0 STARLINK-3980,1 52611U 22052P   23338.46686072  .00007836  00000-0  50972-3 0  9994,2 52611  53.2180  33.1822 0001198  90.4916 269.6213 15.08850067 86422,6917.85,95.437,540.543,538.886,0.0
